{
    "links": {
        "self": "http://www.neowsapp.com/rest/v1/neo/3507716?api_key=iIulBulltgU6a56xZRHN4H3l9WmuAYTsLGpBGhQ2"
    },
    "id": "3507716",
    "neo_reference_id": "3507716",
    "name": "(2010 CM1)",
    "designation": "2010 CM1",
    "nasa_jpl_url": "http://ssd.jpl.nasa.gov/sbdb.cgi?sstr=3507716",
    "absolute_magnitude_h": 25.2,
    "estimated_diameter": {
        "kilometers": {
            "estimated_diameter_min": 0.0242412481,
            "estimated_diameter_max": 0.0542050786
        },
        "meters": {
            "estimated_diameter_min": 24.2412481101,
            "estimated_diameter_max": 54.2050786336
        },
        "miles": {
            "estimated_diameter_min": 0.0150628086,
            "estimated_diameter_max": 0.0336814639
        },
        "feet": {
            "estimated_diameter_min": 79.5316564495,
            "estimated_diameter_max": 177.8381901842
        }
    },
    "is_potentially_hazardous_asteroid": false,
    "close_approach_data": [
        {
            "close_approach_date": "2010-01-19",
            "close_approach_date_full": "2010-Jan-19 03:46",
            "epoch_date_close_approach": 1263872760000,
            "relative_velocity": {
                "kilometers_per_second": "8.8153550334",
                "kilometers_per_hour": "31735.2781202743",
                "miles_per_hour": "19719.0676742338"
            },
            "miss_distance": {
                "astronomical": "0.0561059522",
                "lunar": "21.8252154058",
                "kilometers": "8393330.943441814",
                "miles": "5215374.0081484732"
            },
            "orbiting_body": "Earth"
        }
    ],
    "orbital_data": {
        "orbit_id": "9",
        "orbit_determination_date": "2017-04-06 08:58:28",
        "first_observation_date": "2010-02-09",
        "last_observation_date": "2010-02-16",
        "data_arc_in_days": 7,
        "observations_used": 19,
        "orbit_uncertainty": "9",
        "minimum_orbit_intersection": ".0481351",
        "jupiter_tisserand_invariant": "3.614",
        "epoch_osculation": "2455239.5",
        "eccentricity": ".5195608463607418",
        "semi_major_axis": "2.042123410346046",
        "inclination": "5.137227970643357",
        "ascending_node_longitude": "140.7127553710123",
        "orbital_period": "1065.912126008501",
        "perihelion_distance": ".9811160428935698",
        "perihelion_argument": "309.478157652503",
        "aphelion_distance": "3.103130777798522",
        "perihelion_time": "2455193.407903179376",
        "mean_anomaly": "15.56709455737284",
        "mean_motion": ".3377389103809942",
        "equinox": "J2000",
        "orbit_class": {
            "orbit_class_type": "APO",
            "orbit_class_description": "Near-Earth asteroid orbits which cross the Earth’s orbit similar to that of 1862 Apollo",
            "orbit_class_range": "a (semi-major axis) > 1.0 AU; q (perihelion) < 1.017 AU"
        }
    },
    "is_sentry_object": false
}